start=new Date('2023-06-30T00:00:00.000Z').valueOf();
sats=[{"MEAN_MOTION_DDOT":"0.0000000000000","FILE":"3945398","ARG_OF_PERICENTER":"94.8279","TIME_SYSTEM":"UTC","OBJECT_TYPE":"PAYLOAD","PERIOD":"95.438","GP_ID":"234615999","BSTAR":"0.00002861000000","CLASSIFICATION_TYPE":"U","APOAPSIS":"540.608","REV_AT_EPOCH":"4781","NORAD_CAT_ID":"53568","INCLINATION":"53.2159","MEAN_MOTION_DOT":"0.00000167","ECCENTRICITY":"0.00012360","SEMIMAJOR_AXIS":"6917.888","COUNTRY_CODE":"US","LAUNCH_DATE":"2022-08-19","EPHEMERIS_TYPE":"0","RA_OF_ASC_NODE":"153.7978","ELEMENT_SET_NO":"999","OBJECT_ID":"2022-101AT","TLE_LINE1":"1 53568U 22101AT  23180.14110334  .00000167  00000-0  28610-4 0  9999","EPOCH":"2023-06-29T03:23:11.328576","REF_FRAME":"TEME","CENTER_NAME":"EARTH","SITE":"AFETR","TLE_LINE2":"2 53568  53.2159 153.7978 0001236  94.8279 265.2854 15.08837611 47817","RCS_SIZE":"LARGE","MEAN_ELEMENT_THEORY":"SGP4","PERIAPSIS":"538.898","MEAN_ANOMALY":"265.2854","OBJECT_NAME":"STARLINK-4583","DECAY_DATE":null,"MEAN_MOTION":"15.08837611"},{"SEMIMAJOR_AXIS":"6917.900","ECCENTRICITY":"0.00011890","MEAN_MOTION_DOT":"0.00000436","INCLINATION":"53.2155","NORAD_CAT_ID":"53569","REV_AT_EPOCH":"4780","APOAPSIS":"540.587","CLASSIFICATION_TYPE":"U","BSTAR":"0.00004551400000","GP_ID":"234616008","PERIOD":"95.438","OBJECT_TYPE":"PAYLOAD","TIME_SYSTEM":"UTC","ARG_OF_PERICENTER":"88.7530","FILE":"3945398","MEAN_MOTION_DDOT":"0.0000000000000","MEAN_MOTION":"15.08833695","DECAY_DATE":null,"OBJECT_NAME":"STARLINK-4582","PERIAPSIS":"538.942","MEAN_ANOMALY":"271.3598","MEAN_ELEMENT_THEORY":"SGP4","RCS_SIZE":"LARGE","SITE":"AFETR","TLE_LINE2":"2 53569  53.2155 154.1872 0001189  88.7530 271.3598 15.08833695 47801","CENTER_NAME":"EARTH","REF_FRAME":"TEME","EPOCH":"2023-06-29T02:09:01.939392","TLE_LINE1":"1 53569U 22101AU  23180.08960578  .00000436  00000-0  45514-4 0  9997","OBJECT_ID":"2022-101AU","ELEMENT_SET_NO":"999","LAUNCH_DATE":"2022-08-19","EPHEMERIS_TYPE":"0","RA_OF_ASC_NODE":"154.1872","COUNTRY_CODE":"US"},{"OBJECT_NAME":"STARLINK-4550","PERIAPSIS":"538.912","MEAN_ANOMALY":"266.1416","MEAN_ELEMENT_THEORY":"SGP4","RCS_SIZE":"LARGE","SITE":"AFETR","TLE_LINE2":"2 53570  53.2158 153.8211 0001216  93.9715 266.1416 15.08837569 47819","MEAN_MOTION":"15.08837569","DECAY_DATE":null,"OBJECT_ID":"2022-101AV","ELEMENT_SET_NO":"999","LAUNCH_DATE":"2022-08-19","EPHEMERIS_TYPE":"0","RA_OF_ASC_NODE":"153.8211","COUNTRY_CODE":"US","CENTER_NAME":"EARTH","REF_FRAME":"TEME","EPOCH":"2023-06-29T03:28:29.919936","TLE_LINE1":"1 53570U 22101AV  23180.14479074 -.00000229  00000-0  36757-5 0  9993","CLASSIFICATION_TYPE":"U","BSTAR":"0.00000367570000","GP_ID":"234616001","SEMIMAJOR_AXIS":"6917.888","ECCENTRICITY":"0.00012160","MEAN_MOTION_DOT":"-0.00000229","INCLINATION":"53.2158","NORAD_CAT_ID":"53570","REV_AT_EPOCH":"4781","APOAPSIS":"540.594","FILE":"3945398","MEAN_MOTION_DDOT":"0.0000000000000","PERIOD":"95.438","TIME_SYSTEM":"UTC","OBJECT_TYPE":"PAYLOAD","ARG_OF_PERICENTER":"93.9715"},{"PERIOD":"95.438","ARG_OF_PERICENTER":"90.2059","TIME_SYSTEM":"UTC","OBJECT_TYPE":"PAYLOAD","MEAN_MOTION_DDOT":"0.0000000000000","FILE":"3945398","MEAN_MOTION_DOT":"-0.00000738","INCLINATION":"53.2154","ECCENTRICITY":"0.00012330","SEMIMAJOR_AXIS":"6917.895","APOAPSIS":"540.613","REV_AT_EPOCH":"4780","NORAD_CAT_ID":"53571","CLASSIFICATION_TYPE":"U","GP_ID":"234616009","BSTAR":"-0.00002828700000","REF_FRAME":"TEME","CENTER_NAME":"EARTH","TLE_LINE1":"1 53571U 22101AW  23180.08223523 -.00000738  00000-0 -28287-4 0  9997","EPOCH":"2023-06-29T01:58:25.123872","RA_OF_ASC_NODE":"154.1410","LAUNCH_DATE":"2022-08-19","EPHEMERIS_TYPE":"0","OBJECT_ID":"2022-101AW","ELEMENT_SET_NO":"999","COUNTRY_CODE":"US","DECAY_DATE":null,"MEAN_MOTION":"15.08835155","MEAN_ANOMALY":"269.9074","PERIAPSIS":"538.907","OBJECT_NAME":"STARLINK-4584","SITE":"AFETR","TLE_LINE2":"2 53571  53.2154 154.1410 0001233  90.2059 269.9074 15.08835155 47800","RCS_SIZE":"LARGE","MEAN_ELEMENT_THEORY":"SGP4"},{"TLE_LINE2":"2 53572  53.2169 152.7958 0001185  91.4776 268.6352 15.08837616 47846","SITE":"AFETR","RCS_SIZE":"LARGE","MEAN_ELEMENT_THEORY":"SGP4","PERIAPSIS":"538.933","MEAN_ANOMALY":"268.6352","OBJECT_NAME":"STARLINK-4555","DECAY_DATE":null,"MEAN_MOTION":"15.08837616","COUNTRY_CODE":"US","EPHEMERIS_TYPE":"0","LAUNCH_DATE":"2022-08-19","RA_OF_ASC_NODE":"152.7958","OBJECT_ID":"2022-101AX","ELEMENT_SET_NO":"999","TLE_LINE1":"1 53572U 22101AX  23180.32140365  .00000300  00000-0  36957-4 0  9993","EPOCH":"2023-06-29T07:42:49.275360","REF_FRAME":"TEME","CENTER_NAME":"EARTH","GP_ID":"234622610","BSTAR":"0.00003695700000","CLASSIFICATION_TYPE":"U","APOAPSIS":"540.572","REV_AT_EPOCH":"4784","NORAD_CAT_ID":"53572","MEAN_MOTION_DOT":"0.00000300","INCLINATION":"53.2169","ECCENTRICITY":"0.00011850","SEMIMAJOR_AXIS":"6917.888","MEAN_MOTION_DDOT":"0.0000000000000","FILE":"3945667","ARG_OF_PERICENTER":"91.4776","TIME_SYSTEM":"UTC","OBJECT_TYPE":"PAYLOAD","PERIOD":"95.438"},{"TLE_LINE2":"2 53573  53.2155 151.1000 0001133  91.6563 268.4559 15.08835012 47904","SITE":"AFETR","RCS_SIZE":"LARGE","MEAN_ELEMENT_THEORY":"SGP4","MEAN_ANOMALY":"268.4559","PERIAPSIS":"538.977","OBJECT_NAME":"STARLINK-4547","DECAY_DATE":null,"MEAN_MOTION":"15.08835012","COUNTRY_CODE":"US","LAUNCH_DATE":"2022-08-19","EPHEMERIS_TYPE":"0","RA_OF_ASC_NODE":"151.1000","ELEMENT_SET_NO":"999","OBJECT_ID":"2022-101AY","TLE_LINE1":"1 53573U 22101AY  23180.73358135  .00000004  00000-0  18347-4 0  9999","EPOCH":"2023-06-29T17:36:21.428640","REF_FRAME":"TEME","CENTER_NAME":"EARTH","GP_ID":"234629311","BSTAR":"0.00001834700000","CLASSIFICATION_TYPE":"U","APOAPSIS":"540.544","REV_AT_EPOCH":"4790","NORAD_CAT_ID":"53573","INCLINATION":"53.2155","MEAN_MOTION_DOT":"0.00000004","ECCENTRICITY":"0.00011330","SEMIMAJOR_AXIS":"6917.896","MEAN_MOTION_DDOT":"0.0000000000000","FILE":"3945907","ARG_OF_PERICENTER":"91.6563","TIME_SYSTEM":"UTC","OBJECT_TYPE":"PAYLOAD","PERIOD":"95.438"},{"SEMIMAJOR_AXIS":"6917.892","ECCENTRICITY":"0.00009730","MEAN_MOTION_DOT":"0.00000669","INCLINATION":"53.2167","NORAD_CAT_ID":"53574","REV_AT_EPOCH":"4779","APOAPSIS":"540.430","CLASSIFICATION_TYPE":"U","BSTAR":"0.00006013500000","GP_ID":"234616510","PERIOD":"95.438","OBJECT_TYPE":"PAYLOAD","TIME_SYSTEM":"UTC","ARG_OF_PERICENTER":"76.7229","FILE":"3945409","MEAN_MOTION_DDOT":"0.0000000000000","MEAN_MOTION":"15.08836252","DECAY_DATE":null,"OBJECT_NAME":"STARLINK-4559","PERIAPSIS":"539.084","MEAN_ANOMALY":"283.3871","MEAN_ELEMENT_THEORY":"SGP4","RCS_SIZE":"LARGE","SITE":"AFETR","TLE_LINE2":"2 53574  53.2167 154.3051 0000973  76.7229 283.3871 15.08836252 47790","CENTER_NAME":"EARTH","REF_FRAME":"TEME","EPOCH":"2023-06-28T23:51:11.784960","TLE_LINE1":"1 53574U 22101AZ  23179.99388640  .00000669  00000-0  60135-4 0  9999","ELEMENT_SET_NO":"999","OBJECT_ID":"2022-101AZ","RA_OF_ASC_NODE":"154.3051","LAUNCH_DATE":"2022-08-19","EPHEMERIS_TYPE":"0","COUNTRY_CODE":"US"},{"TLE_LINE1":"1 53575U 22101BA  23180.06749527  .00000151  00000-0  27595-4 0  9994","EPOCH":"2023-06-29T01:37:11.591328","CENTER_NAME":"EARTH","REF_FRAME":"TEME","COUNTRY_CODE":"US","OBJECT_ID":"2022-101BA","ELEMENT_SET_NO":"999","EPHEMERIS_TYPE":"0","LAUNCH_DATE":"2022-08-19","RA_OF_ASC_NODE":"154.0505","DECAY_DATE":null,"MEAN_MOTION":"15.08836748","RCS_SIZE":"LARGE","MEAN_ELEMENT_THEORY":"SGP4","TLE_LINE2":"2 53575  53.2156 154.0505 0001048  91.7865 268.3247 15.08836748 47809","SITE":"AFETR","MEAN_ANOMALY":"268.3247","PERIAPSIS":"539.030","OBJECT_NAME":"STARLINK-4551","OBJECT_TYPE":"PAYLOAD","TIME_SYSTEM":"UTC","ARG_OF_PERICENTER":"91.7865","PERIOD":"95.438","MEAN_MOTION_DDOT":"0.0000000000000","FILE":"3945409","REV_AT_EPOCH":"4780","NORAD_CAT_ID":"53575","APOAPSIS":"540.480","SEMIMAJOR_AXIS":"6917.890","MEAN_MOTION_DOT":"0.00000151","INCLINATION":"53.2156","ECCENTRICITY":"0.00010480","BSTAR":"0.00002759500000","GP_ID":"234616516","CLASSIFICATION_TYPE":"U"},{"MEAN_MOTION":"15.08835399","DECAY_DATE":null,"OBJECT_NAME":"STARLINK-4581","PERIAPSIS":"538.992","MEAN_ANOMALY":"275.3668","TLE_LINE2":"2 53576  53.2162 154.0567 0001110  84.7450 275.3668 15.08835399 47803","SITE":"AFETR","MEAN_ELEMENT_THEORY":"SGP4","RCS_SIZE":"LARGE","REF_FRAME":"TEME","CENTER_NAME":"EARTH","EPOCH":"2023-06-29T01:38:34.401408","TLE_LINE1":"1 53576U 22101BB  23180.06845372  .00000328  00000-0  38691-4 0  9995","LAUNCH_DATE":"2022-08-19","RA_OF_ASC_NODE":"154.0567","EPHEMERIS_TYPE":"0","OBJECT_ID":"2022-101BB","ELEMENT_SET_NO":"999","COUNTRY_CODE":"US","ECCENTRICITY":"0.00011100","INCLINATION":"53.2162","MEAN_MOTION_DOT":"0.00000328","SEMIMAJOR_AXIS":"6917.894","APOAPSIS":"540.527","NORAD_CAT_ID":"53576","REV_AT_EPOCH":"4780","CLASSIFICATION_TYPE":"U","GP_ID":"234616507","BSTAR":"0.00003869100000","PERIOD":"95.438","ARG_OF_PERICENTER":"84.7450","TIME_SYSTEM":"UTC","OBJECT_TYPE":"PAYLOAD","FILE":"3945409","MEAN_MOTION_DDOT":"0.0000000000000"},{"FILE":"3945667","MEAN_MOTION_DDOT":"0.0000000000000","PERIOD":"95.438","TIME_SYSTEM":"UTC","OBJECT_TYPE":"PAYLOAD","ARG_OF_PERICENTER":"79.0577","CLASSIFICATION_TYPE":"U","BSTAR":"0.00008973800000","GP_ID":"234623102","SEMIMAJOR_AXIS":"6917.885","ECCENTRICITY":"0.00012420","INCLINATION":"53.2160","MEAN_MOTION_DOT":"0.00001141","NORAD_CAT_ID":"53577","REV_AT_EPOCH":"4784","APOAPSIS":"540.609","ELEMENT_SET_NO":"999","OBJECT_ID":"2022-101BC","LAUNCH_DATE":"2022-08-19","EPHEMERIS_TYPE":"0","RA_OF_ASC_NODE":"152.8395","COUNTRY_CODE":"US","CENTER_NAME":"EARTH","REF_FRAME":"TEME","EPOCH":"2023-06-29T07:53:26.868480","TLE_LINE1":"1 53577U 22101BC  23180.32878320  .00001141  00000-0  89738-4 0  9996","OBJECT_NAME":"STARLINK-4553","PERIAPSIS":"538.890","MEAN_ANOMALY":"281.0555","MEAN_ELEMENT_THEORY":"SGP4","RCS_SIZE":"LARGE","SITE":"AFETR","TLE_LINE2":"2 53577  53.2160 152.8395 0001242  79.0577 281.0555 15.08838641 47846","MEAN_MOTION":"15.08838641","DECAY_DATE":null}];
